[{"OBJECT_NAME":"STARLINK-1555","OBJECT_ID":"2020-055F","EPOCH":"2026-03-10T00:00:02.999808","MEAN_MOTION":15.18621207,"ECCENTRICITY":0.00014992,"INCLINATION":53.1044,"RA_OF_ASC_NODE":124.8761,"ARG_OF_PERICENTER":67.3394,"MEAN_ANOMALY":17.678,"EPHEMERIS_TYPE":0,"CLASSIFICATION_TYPE":"U","NORAD_CAT_ID":46032,"ELEMENT_SET_NO":999,"REV_AT_EPOCH":564,"BSTAR":0.0057165525,"MEAN_MOTION_DOT":0.00121491,"MEAN_MOTION_DDOT":0},{"OBJECT_NAME":"YAOGAN-1 DEB","OBJECT_ID":"2006-015J","EPOCH":"2026-03-09T17:10:54.675840","MEAN_MOTION":15.17781465,"ECCENTRICITY":0.00121617,"INCLINATION":97.7703,"RA_OF_ASC_NODE":138.5844,"ARG_OF_PERICENTER":172.9693,"MEAN_ANOMALY":187.1713,"EPHEMERIS_TYPE":0,"CLASSIFICATION_TYPE":"U","NORAD_CAT_ID":36365,"ELEMENT_SET_NO":999,"REV_AT_EPOCH":87329,"BSTAR":0.00061009979,"MEAN_MOTION_DOT":0.0001229,"MEAN_MOTION_DDOT":0}]
